[{"OBJECT_NAME":"STARLINK-4565","OBJECT_ID":"2022-101AM","EPOCH":"2026-03-09T05:30:20.232576","MEAN_MOTION":15.08835108,"ECCENTRICITY":0.00011662,"INCLINATION":53.2162,"RA_OF_ASC_NODE":56.3286,"ARG_OF_PERICENTER":100.3212,"MEAN_ANOMALY":259.7911,"EPHEMERIS_TYPE":0,"CLASSIFICATION_TYPE":"U","NORAD_CAT_ID":53562,"ELEMENT_SET_NO":999,"REV_AT_EPOCH":19703,"BSTAR":-0.00010083223,"MEAN_MOTION_DOT":-1.892e-5,"MEAN_MOTION_DDOT":0},{"OBJECT_NAME":"PSLV DEB","OBJECT_ID":"2001-049CY","EPOCH":"2026-03-09T18:20:37.296384","MEAN_MOTION":15.08389698,"ECCENTRICITY":0.00190632,"INCLINATION":97.9861,"RA_OF_ASC_NODE":156.2845,"ARG_OF_PERICENTER":340.3269,"MEAN_ANOMALY":19.722,"EPHEMERIS_TYPE":0,"CLASSIFICATION_TYPE":"U","NORAD_CAT_ID":27152,"ELEMENT_SET_NO":999,"REV_AT_EPOCH":30598,"BSTAR":0.00053695108,"MEAN_MOTION_DOT":8.318e-5,"MEAN_MOTION_DDOT":0}]
